{"fetched_at":"2026-04-03T08:55:45Z","count":9961,"tles":[{"name":"RASSVET-3 4","line1":"1 68363U 26061D   26090.65741017  .00061936  18393-6  21556-3 0  9996","line2":"2 68363  82.2971  99.7117 0027189  44.5884 315.7567 15.88567095  1268","category":"Other"}]}